{"type": "FeatureCollection", "features": [ {"type": "Feature", "properties": {"norad_id": 66601, "name": "STARLINK-35978", "group": "last-30-days", "lat": -21.342190918686065, "lon": 19.27525284548447, "alt_km": 444.85146365779747, "timestamp": "2025-12-15T20:48:52.613981+00:00", "meta": {"OBJECT_NAME": "STARLINK-35978", "OBJECT_ID": "2025-270P", "EPOCH": "2025-12-14T20:00:06.000192", "MEAN_MOTION": 15.4527898, "ECCENTRICITY": 0.00011172, "INCLINATION": 42.9991, "RA_OF_ASC_NODE": 180.4635, "ARG_OF_PERICENTER": 273.7977, "MEAN_ANOMALY": 308.2715, "EPHEMERIS_TYPE": 0, "CLASSIFICATION_TYPE": "U", "NORAD_CAT_ID": 66601, "ELEMENT_SET_NO": 999, "REV_AT_EPOCH": 457, "BSTAR": -0.045597923, "MEAN_MOTION_DOT": -0.01984116, "MEAN_MOTION_DDOT": 0}, "tle": {"line1": "1 66601U 25270P   25348.83340278 -.01984116  00000+0 -45598-1 0  9995", "line2": "2 66601  42.9991 180.4635 0001117 273.7977 308.2715 15.45278980  4575"}}, "geometry": {"type": "Point", "coordinates": [19.27525284548447, -21.342190918686065]}}, {"type": "Feature", "properties": {"norad_id": 66602, "name": "STARLINK-36050", "group": "last-30-days", "lat": 27.617014495202067, "lon": -39.49271058839195, "alt_km": 440.27338524272545, "timestamp": "2025-12-15T20:48:52.613991+00:00", "meta": {"OBJECT_NAME": "STARLINK-36050", "OBJECT_ID": "2025-270Q", "EPOCH": "2025-12-14T20:00:06.000192", "MEAN_MOTION": 15.40682441, "ECCENTRICITY": 0.00016838, "INCLINATION": 42.9995, "RA_OF_ASC_NODE": 180.6217, "ARG_OF_PERICENTER": 260.4108, "MEAN_ANOMALY": 255.4492, "EPHEMERIS_TYPE": 0, "CLASSIFICATION_TYPE": "U", "NORAD_CAT_ID": 66602, "ELEMENT_SET_NO": 999, "REV_AT_EPOCH": 463, "BSTAR": 0.00067072123, "MEAN_MOTION_DOT": 0.000278, "MEAN_MOTION_DDOT": 0}, "tle": {"line1": "1 66602U 25270Q   25348.83340278  .00027800  00000+0  67072-3 0  9994", "line2": "2 66602  42.9995 180.6217 0001683 260.4108 255.4492 15.40682441  4633"}}, "geometry": {"type": "Point", "coordinates": [-39.49271058839195, 27.617014495202067]}}, {"type": "Feature", "properties": {"norad_id": 66603, "name": "STARLINK-36048", "group": "last-30-days", "lat": -40.304266246211334, "lon": 59.92048014254028, "alt_km": 418.8957397209042, "timestamp": "2025-12-15T20:48:52.614003+00:00", "meta": {"OBJECT_NAME": "STARLINK-36048", "OBJECT_ID": "2025-270R", "EPOCH": "2025-12-14T20:31:57.468000", "MEAN_MOTION": 15.4998209, "ECCENTRICITY": 0.00036397, "INCLINATION": 42.9992, "RA_OF_ASC_NODE": 180.2932, "ARG_OF_PERICENTER": 268.8194, "MEAN_ANOMALY": 91.2249, "EPHEMERIS_TYPE": 0, "CLASSIFICATION_TYPE": "U", "NORAD_CAT_ID": 66603, "ELEMENT_SET_NO": 999, "REV_AT_EPOCH": 457, "BSTAR": -0.0034237355, "MEAN_MOTION_DOT": -0.00192289, "MEAN_MOTION_DDOT": 0}, "tle": {"line1": "1 66603U 25270R   25348.85552625 -.00192289  00000+0 -34237-2 0  9990", "line2": "2 66603  42.9992 180.2932 0003639 268.8194  91.2249 15.49982090  4572"}}, "geometry": {"type": "Point", "coordinates": [59.92048014254028, -40.304266246211334]}}, {"type": "Feature", "properties": {"norad_id": 66604, "name": "STARLINK-35977", "group": "last-30-days", "lat": -41.65489632540957, "lon": 67.04434240263367, "alt_km": 416.94533104025413, "timestamp": "2025-12-15T20:48:52.614014+00:00", "meta": {"OBJECT_NAME": "STARLINK-35977", "OBJECT_ID": "2025-270S", "EPOCH": "2025-12-14T22:04:04.540800", "MEAN_MOTION": 15.50589172, "ECCENTRICITY": 0.00018132, "INCLINATION": 42.9993, "RA_OF_ASC_NODE": 179.9134, "ARG_OF_PERICENTER": 265.0339, "MEAN_ANOMALY": 95.0314, "EPHEMERIS_TYPE": 0, "CLASSIFICATION_TYPE": "U", "NORAD_CAT_ID": 66604, "ELEMENT_SET_NO": 999, "REV_AT_EPOCH": 468, "BSTAR": 0.00056915735, "MEAN_MOTION_DOT": 0.00033202, "MEAN_MOTION_DDOT": 0}, "tle": {"line1": "1 66604U 25270S   25348.91949700  .00033202  00000+0  56916-3 0  9998", "line2": "2 66604  42.9993 179.9134 0001813 265.0339  95.0314 15.50589172  4688"}}, "geometry": {"type": "Point", "coordinates": [67.04434240263367, -41.65489632540957]}}, {"type": "Feature", "properties": {"norad_id": 66605, "name": "STARLINK-36052", "group": "last-30-days", "lat": -42.05454410731048, "lon": 69.85838891047555, "alt_km": 415.8475154986072, "timestamp": "2025-12-15T20:48:52.614024+00:00", "meta": {"OBJECT_NAME": "STARLINK-36052", "OBJECT_ID": "2025-270T", "EPOCH": "2025-12-14T22:03:34.355232", "MEAN_MOTION": 15.5062245, "ECCENTRICITY": 0.00030806, "INCLINATION": 42.9995, "RA_OF_ASC_NODE": 179.9117, "ARG_OF_PERICENTER": 262.0527, "MEAN_ANOMALY": 97.9984, "EPHEMERIS_TYPE": 0, "CLASSIFICATION_TYPE": "U", "NORAD_CAT_ID": 66605, "ELEMENT_SET_NO": 999, "REV_AT_EPOCH": 468, "BSTAR": 0.0010308909, "MEAN_MOTION_DOT": 0.00060707, "MEAN_MOTION_DDOT": 0}, "tle": {"line1": "1 66605U 25270T   25348.91914763  .00060707  00000+0  10309-2 0  9995", "line2": "2 66605  42.9995 179.9117 0003080 262.0527  97.9984 15.50622450  4687"}}, "geometry": {"type": "Point", "coordinates": [69.85838891047555, -42.05454410731048]}}, {"type": "Feature", "properties": {"norad_id": 66606, "name": "STARLINK-36063", "group": "last-30-days", "lat": -42.589540345096005, "lon": 74.92136118308864, "alt_km": 416.7692737803045, "timestamp": "2025-12-15T20:48:52.614033+00:00", "meta": {"OBJECT_NAME": "STARLINK-36063", "OBJECT_ID": "2025-270U", "EPOCH": "2025-12-14T22:02:35.345760", "MEAN_MOTION": 15.5061281, "ECCENTRICITY": 0.00018677, "INCLINATION": 42.9987, "RA_OF_ASC_NODE": 179.9047, "ARG_OF_PERICENTER": 276.4879, "MEAN_ANOMALY": 83.5769, "EPHEMERIS_TYPE": 0, "CLASSIFICATION_TYPE": "U", "NORAD_CAT_ID": 66606, "ELEMENT_SET_NO": 999, "REV_AT_EPOCH": 468, "BSTAR": 0.0010215552, "MEAN_MOTION_DOT": 0.00060123, "MEAN_MOTION_DDOT": 0}, "tle": {"line1": "1 66606U 25270U   25348.91846465  .00060123  00000+0  10216-2 0  9998", "line2": "2 66606  42.9987 179.9047 0001867 276.4879  83.5769 15.50612810  4682"}}, "geometry": {"type": "Point", "coordinates": [74.92136118308864, -42.589540345096005]}}, {"type": "Feature", "properties": {"norad_id": 66607, "name": "STARLINK-35993", "group": "last-30-days", "lat": -42.32288319222034, "lon": 72.1268670381842, "alt_km": 417.18791265497566, "timestamp": "2025-12-15T20:48:52.614045+00:00", "meta": {"OBJECT_NAME": "STARLINK-35993", "OBJECT_ID": "2025-270V", "EPOCH": "2025-12-14T22:03:05.219424", "MEAN_MOTION": 15.50588245, "ECCENTRICITY": 0.0001457, "INCLINATION": 42.999, "RA_OF_ASC_NODE": 179.9087, "ARG_OF_PERICENTER": 266.9429, "MEAN_ANOMALY": 93.1265, "EPHEMERIS_TYPE": 0, "CLASSIFICATION_TYPE": "U", "NORAD_CAT_ID": 66607, "ELEMENT_SET_NO": 999, "REV_AT_EPOCH": 458, "BSTAR": 0.00061220898, "MEAN_MOTION_DOT": 0.0003575, "MEAN_MOTION_DDOT": 0}, "tle": {"line1": "1 66607U 25270V   25348.91881041  .00035750  00000+0  61221-3 0  9999", "line2": "2 66607  42.9990 179.9087 0001457 266.9429  93.1265 15.50588245  4582"}}, "geometry": {"type": "Point", "coordinates": [72.1268670381842, -42.32288319222034]}}, {"type": "Feature", "properties": {"norad_id": 66608, "name": "STARLINK-36036", "group": "last-30-days", "lat": -42.76621007027638, "lon": 77.36709847118762, "alt_km": 417.0365967341204, "timestamp": "2025-12-15T20:48:52.614056+00:00", "meta": {"OBJECT_NAME": "STARLINK-36036", "OBJECT_ID": "2025-270W", "EPOCH": "2025-12-14T22:02:05.766720", "MEAN_MOTION": 15.50605072, "ECCENTRICITY": 0.00016642, "INCLINATION": 42.9993, "RA_OF_ASC_NODE": 179.9028, "ARG_OF_PERICENTER": 274.4104, "MEAN_ANOMALY": 85.6566, "EPHEMERIS_TYPE": 0, "CLASSIFICATION_TYPE": "U", "NORAD_CAT_ID": 66608, "ELEMENT_SET_NO": 999, "REV_AT_EPOCH": 452, "BSTAR": 0.0006099243, "MEAN_MOTION_DOT": 0.00035636, "MEAN_MOTION_DDOT": 0}, "tle": {"line1": "1 66608U 25270W   25348.91812230  .00035636  00000+0  60992-3 0  9991", "line2": "2 66608  42.9993 179.9028 0001664 274.4104  85.6566 15.50605072  4527"}}, "geometry": {"type": "Point", "coordinates": [77.36709847118762, -42.76621007027638]}}, {"type": "Feature", "properties": {"norad_id": 66609, "name": "STARLINK-36034", "group": "last-30-days", "lat": -42.89781796426648, "lon": 80.05227792784136, "alt_km": 416.8916261638242, "timestamp": "2025-12-15T20:48:52.614065+00:00", "meta": {"OBJECT_NAME": "STARLINK-36034", "OBJECT_ID": "2025-270X", "EPOCH": "2025-12-14T22:01:36.242976", "MEAN_MOTION": 15.50602311, "ECCENTRICITY": 0.00017878, "INCLINATION": 42.9985, "RA_OF_ASC_NODE": 179.9, "ARG_OF_PERICENTER": 285.0257, "MEAN_ANOMALY": 75.0405, "EPHEMERIS_TYPE": 0, "CLASSIFICATION_TYPE": "U", "NORAD_CAT_ID": 66609, "ELEMENT_SET_NO": 999, "REV_AT_EPOCH": 452, "BSTAR": 0.0010472746, "MEAN_MOTION_DOT": 0.00061634, "MEAN_MOTION_DDOT": 0}, "tle": {"line1": "1 66609U 25270X   25348.91778059  .00061634  00000+0  10473-2 0  9997", "line2": "2 66609  42.9985 179.9000 0001787 285.0257  75.0405 15.50602311  4520"}}, "geometry": {"type": "Point", "coordinates": [80.05227792784136, -42.89781796426648]}}, {"type": "Feature", "properties": {"norad_id": 66610, "name": "STARLINK-35680", "group": "last-30-days", "lat": -42.9651404248343, "lon": 82.60370238245285, "alt_km": 417.1595127722212, "timestamp": "2025-12-15T20:48:52.614076+00:00", "meta": {"OBJECT_NAME": "STARLINK-35680", "OBJECT_ID": "2025-270Y", "EPOCH": "2025-12-14T22:01:06.676896", "MEAN_MOTION": 15.50593441, "ECCENTRICITY": 0.00013482, "INCLINATION": 42.9987, "RA_OF_ASC_NODE": 179.8972, "ARG_OF_PERICENTER": 275.2222, "MEAN_ANOMALY": 84.8485, "EPHEMERIS_TYPE": 0, "CLASSIFICATION_TYPE": "U", "NORAD_CAT_ID": 66610, "ELEMENT_SET_NO": 999, "REV_AT_EPOCH": 479, "BSTAR": 0.00096405875, "MEAN_MOTION_DOT": 0.00056655, "MEAN_MOTION_DDOT": 0}, "tle": {"line1": "1 66610U 25270Y   25348.91743839  .00056655  00000+0  96406-3 0  9995", "line2": "2 66610  42.9987 179.8972 0001348 275.2222  84.8485 15.50593441  4795"}}, "geometry": {"type": "Point", "coordinates": [82.60370238245285, -42.9651404248343]}}]}